OBJECT_NAME,OBJECT_ID,EPOCH,MEAN_MOTION,ECCENTRICITY,INCLINATION,RA_OF_ASC_NODE,ARG_OF_PERICENTER,MEAN_ANOMALY,EPHEMERIS_TYPE,CLASSIFICATION_TYPE,NORAD_CAT_ID,ELEMENT_SET_NO,REV_AT_EPOCH,BSTAR,MEAN_MOTION_DOT,MEAN_MOTION_DDOT
SUOMI NPP,2011-061A,2026-07-24T06:36:13.345344,14.19524096,.00012291,98.7956,145.8994,177.7147,182.4034,0,U,37849,999,76370,.43603638E-4,.48E-6,0
YAOGAN-12,2011-066B,2026-07-24T07:05:11.651136,15.26960634,.00109871,97.1132,242.1229,94.8232,265.4262,0,U,37875,999,81770,.24861346E-3,.6522E-4,0
BEIDOU-2 M4,2012-018B,2026-07-24T04:06:29.957184,1.86229576,.00123395,55.6233,302.8385,272.0123,87.8801,0,U,38251,999,9663,0,-.91E-6,0
ARIRANG-3 (KOMPSAT-3),2012-025B,2026-07-24T07:50:50.475840,14.62235793,.00056123,98.1197,162.1512,13.4452,346.6898,0,U,38338,999,75677,.10700298E-3,.493E-5,0
HORYU-2,2012-025D,2026-07-23T08:10:00.071904,14.91261842,.0009162,98.2215,338.7688,69.1836,291.0361,0,U,38340,999,75411,.29689E-3,.2895E-4,0
CSSWE,2012-048D,2026-07-23T08:04:53.666400,15.46351152,.0039365,64.6638,330.8654,162.4697,197.7811,0,U,38761,999,12198,.65612E-3,.33463E-3,0
CP5,2012-048F,2026-07-23T12:29:05.915904,15.28459736,.0072495,64.6453,32.4486,164.1713,196.1707,0,U,38763,999,12231,.51173E-3,.15209E-3,0
METOP-B,2012-049A,2026-07-24T06:51:13.451904,14.21448305,.00014781,98.6484,256.0405,210.5600,149.5492,0,U,38771,999,71853,.56747393E-4,.81E-6,0
SJ-9A,2012-056A,2026-07-24T05:04:44.638464,14.85544061,.00266716,97.6737,175.8311,133.0460,227.2995,0,U,38860,999,70508,.13793335E-3,.1147E-4,0
COSMOS 2484 (RODNIK-S 6),2013-001C,2026-07-24T08:01:02.161056,12.42940543,.00253037,82.5007,198.7973,315.1951,44.7085,0,U,39059,999,61317,-.42533508E-4,.4E-7,0
SARAL,2013-009A,2026-07-24T06:14:28.785696,14.32897455,.00022181,98.5559,31.3591,146.5456,213.5869,0,U,39086,999,70091,.40611015E-4,.67E-6,0
AAUSAT 3,2013-009B,2026-07-24T05:12:32.343264,14.39980644,.00126798,98.3714,28.1711,100.0215,260.2405,0,U,39087,999,70250,.21294643E-3,.628E-5,0
STRAND-1,2013-009E,2026-07-23T22:55:37.846560,14.37182902,.00097556,98.3941,24.2884,117.7529,242.4648,0,U,39090,999,70234,.10392864E-3,.267E-5,0
BRITE-AUSTRIA,2013-009F,2026-07-24T01:17:28.513536,14.36555275,.0011188,98.4015,23.5809,126.4028,233.8192,0,U,39091,999,70234,.70861515E-4,.166E-5,0
UNIBRITE,2013-009G,2026-07-23T10:37:07.215168,14.36426178,.0010127,98.4054,23.1042,124.4956,235.7188,0,U,39092,999,70219,.69981E-4,.162E-5,0
AIST-2 (RS43),2013-015D,2026-07-24T08:06:54.316224,15.26646257,.00165584,64.8683,135.8192,248.6238,111.3126,0,U,39133,999,72957,.30672481E-3,.7906E-4,0
GAOFEN-1,2013-018A,2026-07-24T08:02:49.756704,14.76525685,.00178247,97.9079,276.6444,142.5788,217.6667,0,U,39150,999,71372,.46952706E-4,.277E-5,0
NEE-01 PEGASO,2013-018B,2026-07-22T20:03:20.143584,14.93816948,.00134607,98.1267,349.1763,51.2724,308.9696,0,U,39151,999,71602,.20250938E-3,.209E-4,0
TURKSAT-3USAT,2013-018C,2026-07-24T04:33:23.255136,14.96626181,.00109652,97.7921,295.8659,343.1873,16.8984,0,U,39152,999,71662,.32789475E-3,.3682E-4,0
CUBEBUG-1 (CAPITAN BETO),2013-018D,2026-07-23T23:42:25.024032,14.97492813,.0011725,98.1695,6.5795,33.3911,326.8047,0,U,39153,999,71657,.28444174E-3,.3255E-4,0
PROBA-V,2013-021A,2026-07-23T09:15:47.879712,14.23604538,.0004919,98.3612,181.2104,40.4967,319.6578,0,U,39159,999,68626,.42412E-4,.56E-6,0
ESTCUBE 1,2013-021C,2026-07-24T01:45:07.612992,14.81497082,.00067642,97.7273,257.9604,250.3549,109.6934,0,U,39161,999,71048,.20156588E-3,.153E-4,0
ARIRANG-5 (KOMPSAT-5),2013-042A,2026-07-24T06:39:58.982400,15.04507525,.00042522,97.6201,31.4568,29.7325,330.4142,0,U,39227,999,70943,.94979964E-4,.1269E-4,0
GONETS-M 5,2013-048A,2026-07-24T07:18:24.117984,12.42893337,.00176199,82.4853,320.2435,130.8949,229.3661,0,U,39249,999,58349,.81687112E-3,.123E-5,0
GONETS-M 7,2013-048C,2026-07-24T08:20:00.134592,12.42916070,.00184072,82.4920,323.1584,131.9685,228.2967,0,U,39251,999,58345,.62948784E-3,.97E-6,0
FENGYUN 3C,2013-052A,2026-07-24T06:55:39.469728,14.15762432,.00134334,98.5015,177.4653,277.5978,82.3671,0,U,39260,999,66381,.58241497E-4,.73E-6,0
CASSIOPE,2013-055A,2026-07-24T06:10:11.975520,15.27755860,.02812039,80.9134,21.5919,297.1096,60.1706,0,U,39265,999,67332,.27102419E-3,.2524E-3,-.415842E-6
APRIZESAT 7,2013-066A,2026-07-24T07:38:22.884288,14.91636859,.00373888,97.7726,158.0099,88.2804,272.2697,0,U,39416,999,68676,.11655628E-3,.1128E-4,0
ZACUBE-1 (TSHEPISOSAT),2013-066B,2026-07-24T03:10:24.221856,15.01368948,.00440604,97.7988,167.6473,126.6584,233.8702,0,U,39417,999,68627,.29057129E-3,.3759E-4,0
APRIZESAT 8,2013-066K,2026-07-24T06:27:28.391904,14.87708184,.00462575,97.8233,152.2241,162.0728,198.2133,0,U,39425,999,68518,.99009296E-4,.863E-5,0
