{"epoch":1784902576,"count":18312,"objects":[{"id":"37849","name":"NPP","type":"PAYLOAD","l1":"1 37849U 11061A   26205.27515446  .00000048  00000-0  43604-4 0  9992","l2":"2 37849  98.7956 145.8994 0001229 177.7147 182.4034 14.19524096763701"},{"id":"37875","name":"YAOGAN 12","type":"PAYLOAD","l1":"1 37875U 11066B   26205.29527374  .00006522  00000-0  24861-3 0  9997","l2":"2 37875  97.1132 242.1229 0010987  94.8232 265.4262 15.26960634817702"},{"id":"38251","name":"BEIDOU 13","type":"PAYLOAD","l1":"1 38251U 12018B   26205.17118006 -.00000091  00000-0  00000-0 0  9991","l2":"2 38251  55.6233 302.8385 0012340 272.0123  87.8801  1.86229576 96633"},{"id":"38338","name":"KOMPSAT 3","type":"PAYLOAD","l1":"1 38338U 12025B   26205.32697310  .00000493  00000-0  10700-3 0  9998","l2":"2 38338  98.1197 162.1512 0005612  13.4452 346.6898 14.62235793756771"},{"id":"38340","name":"HORYU 2","type":"PAYLOAD","l1":"1 38340U 12025D   26204.34027861  .00002895  00000-0  29689-3 0  9994","l2":"2 38340  98.2215 338.7688 0009162  69.1836 291.0361 14.91261842754119"},{"id":"38761","name":"CSSWE","type":"PAYLOAD","l1":"1 38761U 12048D   26204.33673225  .00033463  00000-0  65612-3 0  9997","l2":"2 38761  64.6638 330.8654 0039365 162.4697 197.7811 15.46351152121988"},{"id":"38763","name":"CP5","type":"PAYLOAD","l1":"1 38763U 12048F   26204.52020736  .00015209  00000-0  51173-3 0  9998","l2":"2 38763  64.6453  32.4486 0072495 164.1713 196.1707 15.28459736122314"},{"id":"38771","name":"METOP-B","type":"PAYLOAD","l1":"1 38771U 12049A   26205.28557236  .00000081  00000-0  56747-4 0  9997","l2":"2 38771  98.6484 256.0405 0001478 210.5600 149.5492 14.21448305718533"},{"id":"38860","name":"SJ-9A","type":"PAYLOAD","l1":"1 38860U 12056A   26205.21162776  .00001147  00000-0  13793-3 0  9995","l2":"2 38860  97.6737 175.8311 0026672 133.0460 227.2995 14.85544061705086"},{"id":"39059","name":"COSMOS 2484","type":"PAYLOAD","l1":"1 39059U 13001C   26205.33405279  .00000004  00000-0 -42534-4 0  9996","l2":"2 39059  82.5007 198.7973 0025304 315.1951  44.7085 12.42940543613173"},{"id":"39086","name":"SARAL","type":"PAYLOAD","l1":"1 39086U 13009A   26205.26005539  .00000067  00000-0  40611-4 0  9993","l2":"2 39086  98.5559  31.3591 0002218 146.5456 213.5869 14.32897455700914"},{"id":"39087","name":"AAUSAT3","type":"PAYLOAD","l1":"1 39087U 13009B   26205.21704101  .00000628  00000-0  21295-3 0  9999","l2":"2 39087  98.3714  28.1711 0012680 100.0215 260.2405 14.39980644702508"},{"id":"39090","name":"STRAND 1","type":"PAYLOAD","l1":"1 39090U 13009E   26204.95529915  .00000267  00000-0  10393-3 0  9997","l2":"2 39090  98.3941  24.2884 0009756 117.7529 242.4648 14.37182902702347"},{"id":"39091","name":"BRITE-A TUGSAT-1","type":"PAYLOAD","l1":"1 39091U 13009F   26205.05380224  .00000166  00000-0  70862-4 0  9994","l2":"2 39091  98.4015  23.5809 0011188 126.4028 233.8192 14.36555275702347"},{"id":"39092","name":"BRITE-U UNIBRITE","type":"PAYLOAD","l1":"1 39092U 13009G   26204.44244462  .00000162  00000-0  69981-4 0  9996","l2":"2 39092  98.4054  23.1042 0010127 124.4956 235.7188 14.36426178702194"},{"id":"39133","name":"AIST 2","type":"PAYLOAD","l1":"1 39133U 13015D   26205.33812866  .00007906  00000-0  30672-3 0  9994","l2":"2 39133  64.8683 135.8192 0016558 248.6238 111.3126 15.26646257729572"},{"id":"39150","name":"GAOFEN 1","type":"PAYLOAD","l1":"1 39150U 13018A   26205.33529811  .00000277  00000-0  46953-4 0  9995","l2":"2 39150  97.9079 276.6444 0017825 142.5788 217.6667 14.76525685713726"},{"id":"39151","name":"NEE 01 PEGASUS","type":"PAYLOAD","l1":"1 39151U 13018B   26203.83564981  .00002090  00000-0  20251-3 0  9993","l2":"2 39151  98.1267 349.1763 0013461  51.2724 308.9696 14.93816948716023"},{"id":"39152","name":"TURKSAT 3U","type":"PAYLOAD","l1":"1 39152U 13018C   26205.18985249  .00003682  00000-0  32789-3 0  9995","l2":"2 39152  97.7921 295.8659 0010965 343.1873  16.8984 14.96626181716623"},{"id":"39153","name":"CUBEBUG 1","type":"PAYLOAD","l1":"1 39153U 13018D   26204.98778963  .00003255  00000-0  28444-3 0  9995","l2":"2 39153  98.1695   6.5795 0011725  33.3911 326.8047 14.97492813716573"},{"id":"39159","name":"PROBA V","type":"PAYLOAD","l1":"1 39159U 13021A   26204.38597083  .00000056  00000-0  42412-4 0  9999","l2":"2 39159  98.3612 181.2104 0004919  40.4967 319.6578 14.23604538686261"},{"id":"39161","name":"ESTCUBE 1","type":"PAYLOAD","l1":"1 39161U 13021C   26205.07300478  .00001530  00000-0  20157-3 0  9998","l2":"2 39161  97.7273 257.9604 0006764 250.3549 109.6934 14.81497082710487"},{"id":"39227","name":"KOMPSAT 5","type":"PAYLOAD","l1":"1 39227U 13042A   26205.27776600  .00001269  00000-0  94980-4 0  9995","l2":"2 39227  97.6201  31.4568 0004252  29.7325 330.4142 15.04507525709432"},{"id":"39249","name":"GONETS M 05","type":"PAYLOAD","l1":"1 39249U 13048A   26205.30444581  .00000123  00000-0  81687-3 0  9996","l2":"2 39249  82.4853 320.2435 0017620 130.8949 229.3661 12.42893337583498"},{"id":"39251","name":"GONETS M 07","type":"PAYLOAD","l1":"1 39251U 13048C   26205.34722378  .00000097  00000-0  62949-3 0  9996","l2":"2 39251  82.4920 323.1584 0018407 131.9685 228.2967 12.42916070583459"},{"id":"39260","name":"FENGYUN 3C","type":"PAYLOAD","l1":"1 39260U 13052A   26205.28865127  .00000073  00000-0  58241-4 0  9999","l2":"2 39260  98.5015 177.4653 0013433 277.5978  82.3671 14.15762432663818"},{"id":"39265","name":"CASSIOPE","type":"PAYLOAD","l1":"1 39265U 13055A   26205.25708305  .00025240 -41584-6  27102-3 0  9991","l2":"2 39265  80.9134  21.5919 0281204 297.1096  60.1706 15.27755860673327"},{"id":"39416","name":"APRIZESAT 7","type":"PAYLOAD","l1":"1 39416U 13066A   26205.31832042  .00001128  00000-0  11656-3 0  9991","l2":"2 39416  97.7726 158.0099 0037389  88.2804 272.2697 14.91636859686765"},{"id":"39417","name":"ZACUBE","type":"PAYLOAD","l1":"1 39417U 13066B   26205.13222479  .00003759  00000-0  29057-3 0  9995","l2":"2 39417  97.7988 167.6473 0044060 126.6584 233.8702 15.01368948686273"},{"id":"39425","name":"APRIZESAT 8","type":"PAYLOAD","l1":"1 39425U 13066K   26205.26907861  .00000863  00000-0  99009-4 0  9991","l2":"2 39425  97.8233 152.2241 0046257 162.0728 198.2133 14.87708184685187"}]}